{"fetched_at":"2026-03-29T02:12:04Z","count":15717,"tles":[{"name":"BEIDOU-2 IGSO-6 (C13)","line1":"1 41434U 16021A   26083.88121951 -.00000154  00000+0  00000+0 0  9999","line2":"2 41434  60.1156  38.8764 0058898 233.5118 322.9213  1.00273949 36639","category":"GPS"}]}